ONEWEB-0517             
1 54135U 22138Y   23227.02878236  .00000055  00000+0  10632-3 0  9990
2 54135  87.9247 151.3602 0001561  81.0151 279.1159 13.19728046 40902
ONEWEB-0518             
1 54136U 22138Z   23227.35100355  .00000060  00000+0  11798-3 0  9997
2 54136  87.9248 151.2944 0001884  75.2950 284.8391 13.19724498 40944
ONEWEB-0519             
1 54137U 22138AA  23227.30045865  .00000122  00000+0  27222-3 0  9995
2 54137  87.9291 151.2948 0001473  83.4524 276.6776 13.19727054 40946
ONEWEB-0520             
1 54138U 22138AB  23227.79115257  .00000042  00000+0  72898-4 0  9993
2 54138  87.9249 151.2175 0001601  93.5779 266.5536 13.19727750 40999
ONEWEB-0521             
1 54139U 22138AC  23227.06457993  .00000015  00000+0  44229-5 0  9998
2 54139  87.9291 151.3408 0001848  67.5408 292.5920 13.19722510 40872
ONEWEB-0522             
1 54140U 22138AD  23227.04564292  .00000008  00000+0 -12778-4 0  9995
2 54140  87.9292 151.3475 0001891  82.7235 277.4113 13.19724842 40881
ONEWEB-0523             
1 54141U 22138AE  23227.07205976 -.00000014  00000+0 -66744-4 0  9990
2 54141  87.9168 120.9416 0002935  63.2759 296.8674 13.20771723 43271
ONEWEB-0524             
1 54142U 22138AF  23226.98369260  .00000101  00000+0  21547-3 0  9993
2 54142  87.9266 120.9071 0003053  86.9596 273.1887 13.20771575 43269
